$$SOE
2461302.500000000, A.D. 2026-Sep-19 00:00:00.0000, -2.892262999513271E+08, -1.218345311446187E+08, 5.577009697985114E+07,
2461309.500000000, A.D. 2026-Sep-26 00:00:00.0000, -2.852085020114417E+08, -1.318181303458460E+08, 5.986086302867559E+07,
2461316.500000000, A.D. 2026-Oct-03 00:00:00.0000, -2.807675918648602E+08, -1.416061854711744E+08, 6.386283255681676E+07,
2461323.500000000, A.D. 2026-Oct-10 00:00:00.0000, -2.759141439448739E+08, -1.511861883313377E+08, 6.777097434592341E+07,
2461330.500000000, A.D. 2026-Oct-17 00:00:00.0000, -2.706589095461301E+08, -1.605460487744035E+08, 7.158043440324359E+07,
2461337.500000000, A.D. 2026-Oct-24 00:00:00.0000, -2.650128072471211E+08, -1.696740768714294E+08, 7.528652835815349E+07,
2461344.500000000, A.D. 2026-Oct-31 00:00:00.0000, -2.589869151451031E+08, -1.785589660815632E+08, 7.888473421026435E+07,
2461351.500000000, A.D. 2026-Nov-07 00:00:00.0000, -2.525924644258873E+08, -1.871897773593248E+08, 8.237068541715726E+07,
2461358.500000000, A.D. 2026-Nov-14 00:00:00.0000, -2.458408339403671E+08, -1.955559233462131E+08, 8.574016438616984E+07,
2461365.500000000, A.D. 2026-Nov-21 00:00:00.0000, -2.387435474817755E+08, -2.036471519887223E+08, 8.898909659972906E+07,
2461372.500000000, A.D. 2026-Nov-28 00:00:00.0000, -2.313122746541398E+08, -2.114535326132297E+08, 9.211354522629835E+07,
2461379.500000000, A.D. 2026-Dec-05 00:00:00.0000, -2.235588316176719E+08, -2.189654451361710E+08, 9.510970583905728E+07,
2461386.500000000, A.D. 2026-Dec-12 00:00:00.0000, -2.154951814611850E+08, -2.261735693157372E+08, 9.797390148930216E+07,
2461393.500000000, A.D. 2026-Dec-19 00:00:00.0000, -2.071334360087910E+08, -2.330688740510961E+08, 1.007025783136053E+08,
2461400.500000000, A.D. 2026-Dec-26 00:00:00.0000, -1.984858591277189E+08, -2.396426076098660E+08, 1.032923016201449E+08,
2461407.500000000, A.D. 2027-Jan-02 00:00:00.0000, -1.895648711920674E+08, -2.458862889918620E+08, 1.057397524172110E+08,
2461414.500000000, A.D. 2027-Jan-09 00:00:00.0000, -1.803830545244003E+08, -2.517917004299743E+08, 1.080417243817406E+08,
2461421.500000000, A.D. 2027-Jan-16 00:00:00.0000, -1.709531597258590E+08, -2.573508810413438E+08, 1.101951212744356E+08,
2461428.500000000, A.D. 2027-Jan-23 00:00:00.0000, -1.612881127990409E+08, -2.625561216913327E+08, 1.121969548035812E+08,
2461435.500000000, A.D. 2027-Jan-30 00:00:00.0000, -1.514010228289095E+08, -2.673999611438026E+08, 1.140443429267473E+08,
2461442.500000000, A.D. 2027-Feb-06 00:00:00.0000, -1.413051897526002E+08, -2.718751831873781E+08, 1.157345085912004E+08,
2461449.500000000, A.D. 2027-Feb-13 00:00:00.0000, -1.310141126362470E+08, -2.759748135513114E+08, 1.172647790687625E+08,
2461456.500000000, A.D. 2027-Feb-20 00:00:00.0000, -1.205415007812540E+08, -2.796921174386311E+08, 1.186325860523815E+08,
2461463.500000000, A.D. 2027-Feb-27 00:00:00.0000, -1.099012862230715E+08, -2.830206009326732E+08, 1.198354661413043E+08,
2461470.500000000, A.D. 2027-Mar-06 00:00:00.0000, -9.910763456540564E+07, -2.859540144022993E+08, 1.208710616157001E+08,
2461477.500000000, A.D. 2027-Mar-13 00:00:00.0000, -8.817495571023998E+07, -2.884863559056467E+08, 1.217371218343661E+08,
2461484.500000000, A.D. 2027-Mar-20 00:00:00.0000, -7.711791556673601E+07, -2.906118754797423E+08, 1.224315053077694E+08,
2461491.500000000, A.D. 2027-Mar-27 00:00:00.0000, -6.595144848196868E+07, -2.923250809264188E+08, 1.229521824016566E+08,
2461498.500000000, A.D. 2027-Apr-03 00:00:00.0000, -5.469077012835890E+07, -2.936207452154357E+08, 1.232972386742769E+08,
2461505.500000000, A.D. 2027-Apr-10 00:00:00.0000, -4.335139072040875E+07, -2.944939155656118E+08, 1.234648788782488E+08,
2461512.500000000, A.D. 2027-Apr-17 00:00:00.0000, -3.194912847036781E+07, -2.949399243091559E+08, 1.234534316653882E+08,
2461519.500000000, A.D. 2027-Apr-24 00:00:00.0000, -2.050012313074723E+07, -2.949544016961027E+08, 1.232613550254583E+08,
2461526.500000000, A.D. 2027-May-01 00:00:00.0000, -9.020849241464440E+06, -2.945332907095650E+08, 1.228872424759581E+08,
2461533.500000000, A.D. 2027-May-08 00:00:00.0000, 2.471871322056802E+06, -2.936728632474177E+08, 1.223298300779515E+08,
2461540.500000000, A.D. 2027-May-15 00:00:00.0000, 1.396085611482850E+07, -2.923697368268495E+08, 1.215880045359091E+08,
2461547.500000000, A.D. 2027-May-22 00:00:00.0000, 2.542854676864210E+07, -2.906208945184476E+08, 1.206608123568610E+08,
2461554.500000000, A.D. 2027-May-29 00:00:00.0000, 3.685699502613364E+07, -2.884237097006915E+08, 1.195474696884257E+08,
2461561.500000000, A.D. 2027-Jun-05 00:00:00.0000, 4.822785121944053E+07, -2.857759726337132E+08, 1.182473730629733E+08,
2461568.500000000, A.D. 2027-Jun-12 00:00:00.0000, 5.952235338007958E+07, -2.826759185546163E+08, 1.167601113213568E+08,
2461575.500000000, A.D. 2027-Jun-19 00:00:00.0000, 7.072131686970748E+07, -2.791222583647242E+08, 1.150854787238721E+08,
2461582.500000000, A.D. 2027-Jun-26 00:00:00.0000, 8.180512506169216E+07, -2.751142123058378E+08, 1.132234892544575E+08,
2461589.500000000, A.D. 2027-Jul-03 00:00:00.0000, 9.275372148879369E+07, -2.706515467508982E+08, 1.111743921572504E+08,
2461596.500000000, A.D. 2027-Jul-10 00:00:00.0000, 1.035466038137501E+08, -2.657346142280140E+08, 1.089386887483947E+08,
2461603.500000000, A.D. 2027-Jul-17 00:00:00.0000, 1.141628200215435E+08, -2.603643968341993E+08, 1.065171505359286E+08,
2461610.500000000, A.D. 2027-Jul-24 00:00:00.0000, 1.245809673993049E+08, -2.545425532055756E+08, 1.039108386619810E+08,
2461617.500000000, A.D. 2027-Jul-31 00:00:00.0000, 1.347791951739041E+08, -2.482714688947632E+08, 1.011211246758509E+08,
2461624.500000000, A.D. 2027-Aug-07 00:00:00.0000, 1.447352111161002E+08, -2.415543090651873E+08, 9.814971276680461E+07,
2461631.500000000, A.D. 2027-Aug-14 00:00:00.0000, 1.544262903736043E+08, -2.343950737822146E+08, 9.499866364750330E+07,
2461638.500000000, A.D. 2027-Aug-21 00:00:00.0000, 1.638292877726681E+08, -2.267986592462382E+08, 9.167041973775351E+07,
2461645.500000000, A.D. 2027-Aug-28 00:00:00.0000, 1.729206577022536E+08, -2.187709236940606E+08, 8.816783139430770E+07,
2461652.500000000, A.D. 2027-Sep-04 00:00:00.0000, 1.816764811415368E+08, -2.103187553368883E+08, 8.449418443774962E+07,
2461659.500000000, A.D. 2027-Sep-11 00:00:00.0000, 1.900724992325111E+08, -2.014501427911005E+08, 8.065322895432493E+07,
2461666.500000000, A.D. 2027-Sep-18 00:00:00.0000, 1.980841543816788E+08, -1.921742483532802E+08, 7.664920916917673E+07,
2461673.500000000, A.D. 2027-Sep-25 00:00:00.0000, 2.056866400202523E+08, -1.825014837883585E+08, 7.248689417749552E+07,
2461680.500000000, A.D. 2027-Oct-02 00:00:00.0000, 2.128549600398876E+08, -1.724435880672078E+08, 6.817160928848079E+07,
2461687.500000000, A.D. 2027-Oct-09 00:00:00.0000, 2.195639988960281E+08, -1.620137063764825E+08, 6.370926767716646E+07,
2461694.500000000, A.D. 2027-Oct-16 00:00:00.0000, 2.257886034194376E+08, -1.512264696068808E+08, 5.910640195954454E+07,
2461701.500000000, A.D. 2027-Oct-23 00:00:00.0000, 2.315036775597246E+08, -1.400980732847945E+08, 5.437019521303925E+07,
2461708.500000000, A.D. 2027-Oct-30 00:00:00.0000, 2.366842913660015E+08, -1.286463540886034E+08, 4.950851092492918E+07,
2461715.500000000, A.D. 2027-Nov-06 00:00:00.0000, 2.413058039015346E+08, -1.168908613624089E+08, 4.452992145053063E+07,
2461722.500000000, A.D. 2027-Nov-13 00:00:00.0000, 2.453439988390174E+08, -1.048529240147819E+08, 3.944373427558336E+07,
2461729.500000000, A.D. 2027-Nov-20 00:00:00.0000, 2.487752361907099E+08, -9.255571304409926E+07, 3.426001481481980E+07,
2461736.500000000, A.D. 2027-Nov-27 00:00:00.0000, 2.515766221201200E+08, -8.002429452958572E+07, 2.898960492245252E+07,
2461743.500000000, A.D. 2027-Dec-04 00:00:00.0000, 2.537261948551573E+08, -6.728566974470374E+07, 2.364413636735904E+07,
2461750.500000000, A.D. 2027-Dec-11 00:00:00.0000, 2.552031258337834E+08, -5.436880071480555E+07, 1.823603815275716E+07,
2461757.500000000, A.D. 2027-Dec-18 00:00:00.0000, 2.559879355982445E+08, -4.130461874027185E+07, 1.277853646337511E+07,
2461764.500000000, A.D. 2027-Dec-25 00:00:00.0000, 2.560627233029086E+08, -2.812601294925382E+07, 7.285646008411231E+06,
2461771.500000000, A.D. 2028-Jan-01 00:00:00.0000, 2.554114079690624E+08, -1.486779586968325E+07, 1.772151516541473E+06,
$$EOE